{ "name" : "JOHN ADAMS", "zipcode" : 15338, "state" : "MA", "_id" : "01001" }
{ "name" : "ADAM SMITH", "zipcode" : 36963, "state" : "MA", "_id" : "01002" }
{ "name" : "JOHN WHITE", "zipcode" : 4546, "state" : "MA", "_id" : "01005" }
{ "name" : "MARY JONES", "zipcode" : 10579, "state" : "MA", "_id" : "01007" }
{ "name" : "LESLIE DAVIS", "zipcode" : 1240, "state" : "MA", "_id" : "01008" }
{ "name" : "BILL THOMPSON", "zipcode" : 3706, "state" : "MA", "_id" : "01010" }
{ "name" : "CHIN WONG", "zipcode" : 1688, "state" : "MA", "_id" : "01011" }
{ "name" : "NICOLE ARNELL", "zipcode" : 177, "state" : "MA", "_id" : "01012" }
{ "name" : "MEGAN BENDEN", "zipcode" : 23396, "state" : "MA", "_id" : "01013" }
{ "name" : "BETTY KELLER", "zipcode" : 31495, "state" : "MA", "_id" : "01020" }
{ "name" : "KURT MARTIN", "zipcode" : 1764, "state" : "MA", "_id" : "01022" }
{ "name" : "SCOTT PARK", "zipcode" : 1484, "state" : "MA", "_id" : "01026" }
{ "name" : "SANDRA WALTON", "zipcode" : 16864, "state" : "MA", "_id" : "01027" }
{ "name" : "BETTY SCOTT", "zipcode" : 13367, "state" : "MA", "_id" : "01028" }
{ "name" : "DAINE LAWRENCE", "zipcode" : 11985, "state" : "MA", "_id" : "01030" }
{ "name" : "NICOLAS TAPADOS", "zipcode" : 2385, "state" : "MA", "_id" : "01031" }
{ "name" : "GOURGE MANSON", "zipcode" : 122, "state" : "MA", "_id" : "01032" }
{ "name" : "HELEN BROWN", "zipcode" : 5526, "state" : "MA", "_id" : "01033" }
{ "name" : "TERRENCE GIBSON", "zipcode" : 1652, "state" : "MA", "_id" : "01034" }
{ "name" : "JACK TAYLOR", "zipcode" : 4231, "state" : "MA", "_id" : "01035" }
